[{"OBJECT_NAME":"STARLINK-4471","OBJECT_ID":"2022-105S","EPOCH":"2026-03-09T15:48:04.716288","MEAN_MOTION":15.0562915,"ECCENTRICITY":0.00019386,"INCLINATION":97.6033,"RA_OF_ASC_NODE":311.1471,"ARG_OF_PERICENTER":80.1589,"MEAN_ANOMALY":279.9856,"EPHEMERIS_TYPE":0,"CLASSIFICATION_TYPE":"U","NORAD_CAT_ID":53664,"ELEMENT_SET_NO":999,"REV_AT_EPOCH":19329,"BSTAR":-0.00016140051,"MEAN_MOTION_DOT":-2.388e-5,"MEAN_MOTION_DDOT":0},{"OBJECT_NAME":"MATS","OBJECT_ID":"2022-147A","EPOCH":"2026-03-09T23:39:00.807264","MEAN_MOTION":15.0466868,"ECCENTRICITY":0.00129708,"INCLINATION":97.6844,"RA_OF_ASC_NODE":71.061,"ARG_OF_PERICENTER":166.9988,"MEAN_ANOMALY":193.1575,"EPHEMERIS_TYPE":0,"CLASSIFICATION_TYPE":"U","NORAD_CAT_ID":54227,"ELEMENT_SET_NO":999,"REV_AT_EPOCH":18284,"BSTAR":0.00029670702,"MEAN_MOTION_DOT":4.118e-5,"MEAN_MOTION_DDOT":0}]
